OBJECT_NAME,OBJECT_ID,EPOCH,MEAN_MOTION,ECCENTRICITY,INCLINATION,RA_OF_ASC_NODE,ARG_OF_PERICENTER,MEAN_ANOMALY,EPHEMERIS_TYPE,CLASSIFICATION_TYPE,NORAD_CAT_ID,ELEMENT_SET_NO,REV_AT_EPOCH,BSTAR,MEAN_MOTION_DOT,MEAN_MOTION_DDOT
STARLINK-32538,2024-225H,2025-10-30T22:05:58.020288,14.98341222,.00027646,69.9995,131.7802,270.9953,89.0889,0,U,62170,999,5043,.53399326E-3,.6286E-4,0
STARLINK-32257,2024-225J,2025-10-30T22:35:59.327232,14.98357955,.00025606,69.9996,131.4559,274.3505,85.7361,0,U,62171,999,5044,.53072366E-3,.625E-4,0
STARLINK-32407,2024-225K,2025-10-31T05:24:35.373024,14.98320952,.00028595,69.9997,130.8334,273.6894,86.3938,0,U,62172,999,5048,.54170084E-3,.6375E-4,0
STARLINK-32575,2024-225L,2025-10-31T04:51:05.252832,14.98349713,.00045474,70.0014,120.7481,271.9619,88.1019,0,U,62173,999,5073,.49344884E-3,.5803E-4,0
STARLINK-32552,2024-225M,2025-10-30T22:42:00.681408,14.98344445,.00030524,69.9986,131.4707,273.6356,86.4454,0,U,62174,999,5044,.92881557E-3,.11011E-3,0
STARLINK-32534,2024-225N,2025-10-30T22:11:58.992576,14.98341495,.00018279,70.0024,131.7945,274.9541,85.1410,0,U,62175,999,5043,.81774595E-3,.968E-4,0
STARLINK-32516,2024-225P,2025-10-30T21:59:57.327072,14.98323294,.00027021,69.9988,131.7635,274.5571,85.5279,0,U,62176,999,5043,.66951352E-3,.7903E-4,0
STARLINK-32542,2024-225Q,2025-10-30T21:41:55.443552,14.98342117,.00024281,70.0016,131.7213,274.7652,85.3230,0,U,62177,999,5043,.79378186E-3,.9394E-4,0
STARLINK-32600,2024-225R,2025-10-30T22:02:33.192672,14.98343695,.00033546,70.0008,121.7664,258.9013,101.1769,0,U,62178,999,5068,.78880509E-3,.9335E-4,0
STARLINK-32584,2024-225S,2025-10-30T23:06:01.874880,14.98351837,.00018035,70.0029,131.4635,254.1074,105.9886,0,U,62179,999,5044,.15674187E-2,.18669E-3,0
STARLINK-32587,2024-225T,2025-10-30T22:47:58.744608,14.98331813,.00026258,70.0002,131.3929,295.9541,64.1347,0,U,62180,999,5044,-.70664124E-3,-.8514E-4,0
STARLINK-32602,2024-225U,2025-10-31T05:39:10.733760,14.98339171,.00040956,70.0028,120.8686,267.0387,93.0303,0,U,62181,999,5073,.36272414E-3,.4239E-4,0
STARLINK-32565,2024-225V,2025-10-30T22:23:57.786144,14.98339676,.00030071,70.0004,131.4281,269.2666,90.8149,0,U,62182,999,5044,.54462388E-3,.6413E-4,0
STARLINK-32589,2024-225W,2025-10-30T22:23:45.925152,14.98348604,.00028247,70.0010,131.8244,272.2716,87.8120,0,U,62183,999,5043,.63351725E-3,.7478E-4,0
STARLINK-32581,2024-225X,2025-10-31T05:15:08.001504,14.98323640,.00035075,69.9987,120.8066,269.1994,90.8763,0,U,62184,999,5073,.50413494E-3,.5926E-4,0
STARLINK-32686,2024-229A,2025-10-30T23:09:35.297568,15.27588536,.00013365,43.0014,279.7087,267.6092,92.4607,0,U,62192,999,5076,.20168485E-2,.55672E-3,0
STARLINK-32688,2024-229B,2025-10-31T05:51:27.359424,15.27575612,.00023194,43.0004,281.8160,108.9253,251.1850,0,U,62193,999,5076,.1356635E-2,.37254E-3,0
STARLINK-32684,2024-229C,2025-10-31T00:31:56.626752,15.27623446,.00016529,43.0002,282.7369,264.3164,95.7499,0,U,62194,999,5191,.21052681E-2,.58206E-3,0
STARLINK-32672,2024-229D,2025-10-31T05:34:45.681888,15.27599666,.00012754,42.9998,281.7308,258.6188,101.4520,0,U,62195,999,5076,.15904988E-2,.43792E-3,0
STARLINK-32682,2024-229E,2025-10-31T06:50:48.689664,15.27634041,.00012812,43.0006,248.8473,253.2908,106.7803,0,U,62196,999,5114,.17733948E-2,.48943E-3,0
STARLINK-32663,2024-229F,2025-10-31T00:06:14.478336,15.27569661,.00013597,43.0028,283.4567,250.1076,109.9630,0,U,62197,999,5072,.12793972E-2,.35101E-3,0
STARLINK-32640,2024-229G,2025-10-31T00:41:11.431392,15.27600299,.00009469,43.0037,282.7846,218.3334,141.7451,0,U,62198,999,5073,.14097066E-2,.38758E-3,0
STARLINK-32653,2024-229H,2025-10-30T15:47:14.012448,15.27594546,.00005987,43.0028,278.1924,337.0886,22.9939,0,U,62199,999,5075,.12137569E-2,.33303E-3,0
STARLINK-32647,2024-229J,2025-10-31T05:55:07.546368,15.27591906,.00008763,43.0017,281.8331,272.6069,87.4683,0,U,62200,999,5076,.16335948E-2,.44982E-3,0
STARLINK-32667,2024-229K,2025-10-31T03:29:11.148288,15.27606296,.00018023,42.9988,281.9408,275.4192,84.6454,0,U,62201,999,5075,.22875093E-2,.63279E-3,0
STARLINK-32655,2024-229L,2025-10-30T23:55:09.119712,15.27608017,.00012717,43.0009,283.3987,259.9796,100.0912,0,U,62202,999,5072,.19338875E-2,.53386E-3,0
STARLINK-32665,2024-229M,2025-10-31T05:45:51.456096,15.27609186,.00009569,43.0031,281.7854,269.8084,90.2658,0,U,62203,999,5076,.14939923E-2,.41115E-3,0
STARLINK-32664,2024-229N,2025-10-31T06:00:39.992832,15.27627258,.00012203,43.0012,281.8605,263.1764,96.8949,0,U,62204,999,5076,.17749511E-2,.48976E-3,0
STARLINK-32660,2024-229P,2025-10-30T22:53:09.858912,15.27581554,.00010354,43.0007,269.2040,255.9884,104.0852,0,U,62205,999,5088,.12978707E-2,.35627E-3,0
STARLINK-32448,2024-229Q,2025-10-31T00:26:23.772480,15.27627949,.00024428,43.0027,282.7055,292.7069,67.3525,0,U,62206,999,5073,.1876882E-2,.51827E-3,0
STARLINK-32430,2024-229R,2025-10-30T15:55:47.852256,15.27614862,.00015833,43.0027,281.7502,261.5451,98.5221,0,U,62207,999,5071,.11793076E-2,.32367E-3,0
STARLINK-32675,2024-229S,2025-10-31T05:40:18.734016,15.27602466,.00013506,42.9991,281.7557,268.7613,91.3084,0,U,62208,999,5076,.14100991E-2,.38772E-3,0
STARLINK-32671,2024-229T,2025-10-31T00:15:29.901600,15.27614633,.00011933,43.0013,283.5012,247.9107,112.1618,0,U,62209,999,5072,.16051091E-2,.44219E-3,0
STARLINK-32670,2024-229U,2025-10-31T05:29:12.552864,15.27601795,.0000861,43.0018,281.7022,259.4551,100.6204,0,U,62210,999,5076,.12900852E-2,.35432E-3,0
STARLINK-32642,2024-229V,2025-10-30T23:03:20.303424,15.27591851,.00020861,42.9999,283.1299,262.9510,97.1104,0,U,62211,999,5072,.78305776E-3,.21357E-3,0
STARLINK-32668,2024-229W,2025-10-30T16:01:20.644320,15.27594981,.00015539,43.0057,281.7778,229.4938,130.5778,0,U,62212,999,5071,.33301538E-3,.8917E-4,0
STARLINK-32669,2024-229X,2025-10-31T00:00:41.618016,15.27603832,.00009754,42.9995,283.4248,254.5892,105.4852,0,U,62213,999,5072,.13227949E-2,.36344E-3,0
STARLINK-32666,2024-229Y,2025-10-31T00:09:56.843424,15.27599847,.00018134,43.0027,283.4737,274.0815,85.9829,0,U,62214,999,5072,.13925846E-2,.38282E-3,0
STARLINK-32662,2024-229Z,2025-10-31T06:06:15.297408,15.27577184,.00007077,43.0011,281.8875,280.9952,79.0820,0,U,62215,999,5076,.15743746E-2,.43312E-3,0
STARLINK-11394 [DTC],2024-231A,2025-10-30T13:32:26.832480,15.69773276,.00029075,53.1574,22.7528,154.0601,206.0563,0,U,62218,999,5297,.10435186E-2,.128153E-2,0
STARLINK-11490 [DTC],2024-231B,2025-10-30T18:14:33.975744,15.69808081,.00012168,53.1567,21.8432,129.9562,230.1563,0,U,62219,999,5300,.18641348E-2,.232639E-2,0
STARLINK-11466 [DTC],2024-231C,2025-10-30T12:21:57.800448,15.69773929,.0001383,53.1570,23.1633,59.2951,300.8204,0,U,62220,999,5296,.21267856E-2,.266211E-2,0
STARLINK-11468 [DTC],2024-231D,2025-10-31T06:56:20.016384,15.69953519,.00076035,53.1566,19.4598,22.4720,337.6630,0,U,62221,999,5308,.22725327E-2,.287667E-2,0
STARLINK-11488 [DTC],2024-231E,2025-10-30T16:49:57.032256,15.69748255,.00010896,53.1574,22.1883,73.9533,286.1605,0,U,62222,999,5299,.73868932E-3,.90022E-3,0
STARLINK-11483 [DTC],2024-231F,2025-10-30T16:00:30.275712,15.69740192,.00013844,53.1565,21.9609,94.6388,265.4788,0,U,62223,999,5299,.1052327E-2,.129062E-2,0
STARLINK-11492 [DTC],2024-231G,2025-10-30T18:35:45.918528,15.69767978,.00011262,53.1573,21.9505,71.9320,288.1821,0,U,62224,999,5300,.13577231E-2,.167665E-2,0
STARLINK-11471 [DTC],2024-231H,2025-10-30T14:35:52.945152,15.69772959,.00014017,53.1566,22.3194,119.8974,240.2183,0,U,62225,999,5298,.11875955E-2,.146231E-2,0
STARLINK-11475 [DTC],2024-231J,2025-10-30T16:14:37.679136,15.69733916,.00010651,53.1568,22.0225,103.8641,256.2496,0,U,62226,999,5299,.83931497E-3,.102458E-2,0
STARLINK-11469 [DTC],2024-231K,2025-10-30T11:53:42.439776,15.69754610,.00012544,53.1575,23.0291,86.6835,273.4327,0,U,62227,999,5296,.19582517E-2,.244217E-2,0
STARLINK-11476 [DTC],2024-231L,2025-10-31T07:10:16.687200,15.69939820,.00017576,53.1567,18.7868,161.6609,198.4472,0,U,62228,999,5310,.35949291E-2,.464617E-2,0
STARLINK-11485 [DTC],2024-231M,2025-10-30T16:21:41.306112,15.69817039,.00009901,53.1578,22.0538,69.7126,290.3999,0,U,62229,999,5299,.18512004E-2,.231063E-2,0
STARLINK-11481 [DTC],2024-231N,2025-10-30T18:49:53.559552,15.69787243,.00012619,53.1571,21.9977,76.2481,283.8677,0,U,62230,999,5300,.18415974E-2,.229533E-2,0
STARLINK-32650,2024-231P,2025-10-30T12:04:26.085216,15.30210085,.00010077,53.1550,104.5172,97.0966,263.0150,0,U,62231,999,5183,.93163878E-3,.27344E-3,0
STARLINK-32636,2024-231Q,2025-10-30T20:31:00.590016,15.30259907,.00015288,53.1590,102.4505,48.1575,311.9556,0,U,62232,999,5189,.24026703E-2,.71622E-3,0
STARLINK-32643,2024-231R,2025-10-30T19:29:35.172960,15.30237702,.00004548,53.1608,90.1106,113.5019,246.6030,0,U,62233,999,5205,.24926661E-2,.74294E-3,0
STARLINK-32652,2024-231S,2025-10-30T03:49:51.501504,15.30191151,.00013041,53.1565,105.9286,79.4612,280.6536,0,U,62234,999,5177,.11613178E-2,.34185E-3,0
STARLINK-32631,2024-231T,2025-10-31T08:00:03.000384,15.30273163,.00010278,53.1590,87.5325,81.8541,352.1166,0,U,62235,999,585,-.41821169E-2,-.122486E-2,0
STARLINK-32641,2024-231U,2025-10-31T03:24:25.180704,15.30195620,.00021099,53.1590,88.6116,92.0987,268.0255,0,U,62236,999,5210,.14249607E-2,.42078E-3,0
STARLINK-32632,2024-231V,2025-10-30T19:44:03.448032,15.30235229,.00005411,53.1569,102.9513,33.2868,326.8167,0,U,62262,999,5188,.16233746E-2,.48085E-3,0
STARLINK-11496 [DTC],2024-237A,2025-10-31T04:53:14.656704,15.70999244,.00009929,42.9999,117.4562,292.0755,68.0007,0,U,62267,999,5268,.19930257E-2,.26539E-2,0
STARLINK-11501 [DTC],2024-237B,2025-10-30T12:51:45.870912,15.70932632,.00018225,42.9999,121.0320,277.0779,82.9882,0,U,62268,999,5253,.18832951E-2,.24957E-2,0
STARLINK-11491 [DTC],2024-237C,2025-10-30T12:44:07.350432,15.71203178,.00027597,42.9987,120.9888,252.3858,107.6708,0,U,62269,999,5258,.32978266E-2,.453481E-2,0
